start=new Date('2022-08-27T00:00:00.000Z').valueOf();
sats=[{"ELEMENT_SET_NO":"999","PERIOD":"95.592","TIME_SYSTEM":"UTC","MEAN_ELEMENT_THEORY":"SGP4","MEAN_ANOMALY":"268.0216","FILE":"3548620","DECAY_DATE":null,"SITE":"AFETR","OBJECT_TYPE":"PAYLOAD","ECCENTRICITY":"0.00015840","APOAPSIS":"548.314","CENTER_NAME":"EARTH","EPOCH":"2022-08-26T21:42:43.922592","CLASSIFICATION_TYPE":"U","MEAN_MOTION":"15.06398711","REF_FRAME":"TEME","TLE_LINE1":"1 46070U 20055AV  22238.90467503  .00000762  00000-0  70069-4 0  9991","COUNTRY_CODE":"US","ARG_OF_PERICENTER":"92.0955","LAUNCH_DATE":"2020-08-07","BSTAR":"0.00007006900000","REV_AT_EPOCH":"11476","PERIAPSIS":"546.121","OBJECT_ID":"2020-055AV","RCS_SIZE":"LARGE","TLE_LINE2":"2 46070  53.0548 131.1867 0001584  92.0955 268.0216 15.06398711114764","GP_ID":"211075200","RA_OF_ASC_NODE":"131.1867","EPHEMERIS_TYPE":"0","MEAN_MOTION_DDOT":"0.0000000000000","NORAD_CAT_ID":"46070","SEMIMAJOR_AXIS":"6925.353","MEAN_MOTION_DOT":"0.00000762","OBJECT_NAME":"STARLINK-1536","INCLINATION":"53.0548"},{"TIME_SYSTEM":"UTC","PERIOD":"95.592","ELEMENT_SET_NO":"999","FILE":"3548620","SITE":"AFETR","DECAY_DATE":null,"MEAN_ANOMALY":"287.3556","MEAN_ELEMENT_THEORY":"SGP4","CENTER_NAME":"EARTH","APOAPSIS":"548.620","OBJECT_TYPE":"PAYLOAD","ECCENTRICITY":"0.00020100","REF_FRAME":"TEME","MEAN_MOTION":"15.06395419","CLASSIFICATION_TYPE":"U","EPOCH":"2022-08-26T22:09:16.702272","BSTAR":"0.00001033200000","LAUNCH_DATE":"2020-08-07","ARG_OF_PERICENTER":"72.7653","COUNTRY_CODE":"US","TLE_LINE1":"1 46071U 20055AW  22238.92310998 -.00000128  00000-0  10332-4 0  9993","RCS_SIZE":"LARGE","OBJECT_ID":"2020-055AW","PERIAPSIS":"545.836","REV_AT_EPOCH":"11476","MEAN_MOTION_DDOT":"0.0000000000000","RA_OF_ASC_NODE":"131.0905","EPHEMERIS_TYPE":"0","GP_ID":"211075450","TLE_LINE2":"2 46071  53.0559 131.0905 0002010  72.7653 287.3556 15.06395419114767","INCLINATION":"53.0559","OBJECT_NAME":"STARLINK-1538","MEAN_MOTION_DOT":"-0.00000128","SEMIMAJOR_AXIS":"6925.363","NORAD_CAT_ID":"46071"},{"LAUNCH_DATE":"2020-08-07","BSTAR":"0.00001803500000","ARG_OF_PERICENTER":"77.9193","COUNTRY_CODE":"US","TLE_LINE1":"1 46072U 20055AX  22238.81527568 -.00000013  00000-0  18035-4 0  9996","RCS_SIZE":"LARGE","PERIAPSIS":"546.138","REV_AT_EPOCH":"11473","OBJECT_ID":"2020-055AX","EPHEMERIS_TYPE":"0","RA_OF_ASC_NODE":"131.5933","MEAN_MOTION_DDOT":"0.0000000000000","GP_ID":"211076194","TLE_LINE2":"2 46072  53.0546 131.5933 0001552  77.9193 282.1969 15.06400097114733","OBJECT_NAME":"STARLINK-1539","INCLINATION":"53.0546","SEMIMAJOR_AXIS":"6925.348","MEAN_MOTION_DOT":"-0.00000013","NORAD_CAT_ID":"46072","TIME_SYSTEM":"UTC","PERIOD":"95.592","ELEMENT_SET_NO":"999","MEAN_ANOMALY":"282.1969","FILE":"3548620","DECAY_DATE":null,"SITE":"AFETR","MEAN_ELEMENT_THEORY":"SGP4","CENTER_NAME":"EARTH","APOAPSIS":"548.288","ECCENTRICITY":"0.00015520","OBJECT_TYPE":"PAYLOAD","REF_FRAME":"TEME","MEAN_MOTION":"15.06400097","CLASSIFICATION_TYPE":"U","EPOCH":"2022-08-26T19:33:59.818752"},{"CENTER_NAME":"EARTH","APOAPSIS":"548.324","ECCENTRICITY":"0.00016330","OBJECT_TYPE":"PAYLOAD","MEAN_MOTION":"15.06406690","REF_FRAME":"TEME","CLASSIFICATION_TYPE":"U","EPOCH":"2022-08-26T23:07:38.629056","TIME_SYSTEM":"UTC","PERIOD":"95.592","ELEMENT_SET_NO":"999","FILE":"3548620","SITE":"AFETR","DECAY_DATE":null,"MEAN_ANOMALY":"289.8254","MEAN_ELEMENT_THEORY":"SGP4","MEAN_MOTION_DDOT":"0.0000000000000","EPHEMERIS_TYPE":"0","RA_OF_ASC_NODE":"130.9214","GP_ID":"211074451","TLE_LINE2":"2 46073  53.0532 130.9214 0001633  70.2911 289.8254 15.06406690114767","INCLINATION":"53.0532","OBJECT_NAME":"STARLINK-1542","MEAN_MOTION_DOT":"0.00000691","SEMIMAJOR_AXIS":"6925.328","NORAD_CAT_ID":"46073","BSTAR":"0.00006529900000","LAUNCH_DATE":"2020-08-07","ARG_OF_PERICENTER":"70.2911","TLE_LINE1":"1 46073U 20055AY  22238.96364154  .00000691  00000-0  65299-4 0  9998","COUNTRY_CODE":"US","RCS_SIZE":"LARGE","PERIAPSIS":"546.062","REV_AT_EPOCH":"11476","OBJECT_ID":"2020-055AY"},{"PERIAPSIS":"546.069","OBJECT_ID":"2020-055AZ","REV_AT_EPOCH":"11471","RCS_SIZE":"LARGE","TLE_LINE1":"1 46074U 20055AZ  22238.68351765  .00000030  00000-0  20949-4 0  9992","COUNTRY_CODE":"US","ARG_OF_PERICENTER":"69.9253","BSTAR":"0.00002094900000","LAUNCH_DATE":"2020-08-07","NORAD_CAT_ID":"46074","MEAN_MOTION_DOT":"0.00000030","SEMIMAJOR_AXIS":"6925.358","INCLINATION":"53.0552","OBJECT_NAME":"STARLINK-1549","TLE_LINE2":"2 46074  53.0552 132.1626 0001666  69.9253 290.1915 15.06396950114712","GP_ID":"211074700","MEAN_MOTION_DDOT":"0.0000000000000","EPHEMERIS_TYPE":"0","RA_OF_ASC_NODE":"132.1626","MEAN_ELEMENT_THEORY":"SGP4","FILE":"3548620","SITE":"AFETR","DECAY_DATE":null,"MEAN_ANOMALY":"290.1915","ELEMENT_SET_NO":"999","PERIOD":"95.592","TIME_SYSTEM":"UTC","EPOCH":"2022-08-26T16:24:15.924960","CLASSIFICATION_TYPE":"U","REF_FRAME":"TEME","MEAN_MOTION":"15.06396950","OBJECT_TYPE":"PAYLOAD","ECCENTRICITY":"0.00016660","APOAPSIS":"548.377","CENTER_NAME":"EARTH"},{"LAUNCH_DATE":"2020-08-07","BSTAR":"0.00003957400000","ARG_OF_PERICENTER":"75.1285","COUNTRY_CODE":"US","TLE_LINE1":"1 46075U 20055BA  22238.90836028  .00000308  00000-0  39574-4 0  9990","RCS_SIZE":"LARGE","PERIAPSIS":"546.065","REV_AT_EPOCH":"11475","OBJECT_ID":"2020-055BA","EPHEMERIS_TYPE":"0","RA_OF_ASC_NODE":"131.1517","MEAN_MOTION_DDOT":"0.0000000000000","GP_ID":"211075951","TLE_LINE2":"2 46075  53.0554 131.1517 0001664  75.1285 284.9888 15.06398684114755","OBJECT_NAME":"STARLINK-1551","INCLINATION":"53.0554","SEMIMAJOR_AXIS":"6925.353","MEAN_MOTION_DOT":"0.00000308","NORAD_CAT_ID":"46075","TIME_SYSTEM":"UTC","PERIOD":"95.592","ELEMENT_SET_NO":"999","MEAN_ANOMALY":"284.9888","SITE":"AFETR","FILE":"3548620","DECAY_DATE":null,"MEAN_ELEMENT_THEORY":"SGP4","CENTER_NAME":"EARTH","APOAPSIS":"548.370","ECCENTRICITY":"0.00016640","OBJECT_TYPE":"PAYLOAD","REF_FRAME":"TEME","MEAN_MOTION":"15.06398684","CLASSIFICATION_TYPE":"U","EPOCH":"2022-08-26T21:48:02.328192"},{"TLE_LINE2":"2 46076  53.0542 131.0578 0001165  70.7045 289.4070 15.06346481114740","GP_ID":"211075694","MEAN_MOTION_DDOT":"0.0000000000000","RA_OF_ASC_NODE":"131.0578","EPHEMERIS_TYPE":"0","NORAD_CAT_ID":"46076","MEAN_MOTION_DOT":"0.00034139","SEMIMAJOR_AXIS":"6925.513","INCLINATION":"53.0542","OBJECT_NAME":"STARLINK-1552","TLE_LINE1":"1 46076U 20055BB  22238.93419738  .00034139  00000-0  23030-2 0  9996","COUNTRY_CODE":"US","ARG_OF_PERICENTER":"70.7045","BSTAR":"0.00230300000000","LAUNCH_DATE":"2020-08-07","PERIAPSIS":"546.571","OBJECT_ID":"2020-055BB","REV_AT_EPOCH":"11474","RCS_SIZE":"LARGE","ECCENTRICITY":"0.00011650","OBJECT_TYPE":"PAYLOAD","APOAPSIS":"548.184","CENTER_NAME":"EARTH","EPOCH":"2022-08-26T22:25:14.653632","CLASSIFICATION_TYPE":"U","REF_FRAME":"TEME","MEAN_MOTION":"15.06346481","ELEMENT_SET_NO":"999","PERIOD":"95.596","TIME_SYSTEM":"UTC","MEAN_ELEMENT_THEORY":"SGP4","DECAY_DATE":null,"FILE":"3548620","SITE":"AFETR","MEAN_ANOMALY":"289.4070"},{"ECCENTRICITY":"0.00016550","OBJECT_TYPE":"PAYLOAD","APOAPSIS":"548.339","CENTER_NAME":"EARTH","EPOCH":"2022-08-26T21:58:38.689248","CLASSIFICATION_TYPE":"U","REF_FRAME":"TEME","MEAN_MOTION":"15.06406893","ELEMENT_SET_NO":"999","PERIOD":"95.592","TIME_SYSTEM":"UTC","MEAN_ELEMENT_THEORY":"SGP4","MEAN_ANOMALY":"285.5493","FILE":"3548620","DECAY_DATE":null,"SITE":"AFETR","TLE_LINE2":"2 46077  53.0550 131.1365 0001655  74.5679 285.5493 15.06406893114711","GP_ID":"211074951","RA_OF_ASC_NODE":"131.1365","EPHEMERIS_TYPE":"0","MEAN_MOTION_DDOT":"0.0000000000000","NORAD_CAT_ID":"46077","SEMIMAJOR_AXIS":"6925.327","MEAN_MOTION_DOT":"0.00001157","OBJECT_NAME":"STARLINK-1559","INCLINATION":"53.0550","TLE_LINE1":"1 46077U 20055BC  22238.91572557  .00001157  00000-0  96533-4 0  9998","COUNTRY_CODE":"US","ARG_OF_PERICENTER":"74.5679","LAUNCH_DATE":"2020-08-07","BSTAR":"0.00009653300000","PERIAPSIS":"546.046","REV_AT_EPOCH":"11471","OBJECT_ID":"2020-055BC","RCS_SIZE":"LARGE"},{"MEAN_ELEMENT_THEORY":"SGP4","MEAN_ANOMALY":"297.5152","DECAY_DATE":null,"FILE":"3548620","SITE":"AFETR","PERIOD":"95.593","ELEMENT_SET_NO":"999","TIME_SYSTEM":"UTC","CLASSIFICATION_TYPE":"U","EPOCH":"2022-08-26T23:02:20.742720","MEAN_MOTION":"15.06393040","REF_FRAME":"TEME","OBJECT_TYPE":"PAYLOAD","ECCENTRICITY":"0.00018710","CENTER_NAME":"EARTH","APOAPSIS":"548.531","RCS_SIZE":"LARGE","PERIAPSIS":"545.939","REV_AT_EPOCH":"11473","OBJECT_ID":"2020-055BD","ARG_OF_PERICENTER":"62.6027","TLE_LINE1":"1 46078U 20055BD  22238.95996230  .00000031  00000-0  21022-4 0  9992","COUNTRY_CODE":"US","LAUNCH_DATE":"2020-08-07","BSTAR":"0.00002102200000","NORAD_CAT_ID":"46078","OBJECT_NAME":"STARLINK-1563","INCLINATION":"53.0540","SEMIMAJOR_AXIS":"6925.370","MEAN_MOTION_DOT":"0.00000031","TLE_LINE2":"2 46078  53.0540 130.9332 0001871  62.6027 297.5152 15.06393040114733","EPHEMERIS_TYPE":"0","RA_OF_ASC_NODE":"130.9332","MEAN_MOTION_DDOT":"0.0000000000000","GP_ID":"211075201"},{"OBJECT_TYPE":"PAYLOAD","ECCENTRICITY":"0.00015480","APOAPSIS":"548.286","CENTER_NAME":"EARTH","EPOCH":"2022-08-26T19:40:39.151776","CLASSIFICATION_TYPE":"U","MEAN_MOTION":"15.06399862","REF_FRAME":"TEME","ELEMENT_SET_NO":"999","PERIOD":"95.592","TIME_SYSTEM":"UTC","MEAN_ELEMENT_THEORY":"SGP4","FILE":"3548620","DECAY_DATE":null,"SITE":"AFETR","MEAN_ANOMALY":"274.0267","TLE_LINE2":"2 46079  53.0547 131.5586 0001548  86.0899 274.0267 15.06399862114743","GP_ID":"211075451","MEAN_MOTION_DDOT":"0.0000000000000","RA_OF_ASC_NODE":"131.5586","EPHEMERIS_TYPE":"0","NORAD_CAT_ID":"46079","MEAN_MOTION_DOT":"0.00000471","SEMIMAJOR_AXIS":"6925.349","INCLINATION":"53.0547","OBJECT_NAME":"STARLINK-1566","COUNTRY_CODE":"US","TLE_LINE1":"1 46079U 20055BE  22238.81989759  .00000471  00000-0  50501-4 0  9998","ARG_OF_PERICENTER":"86.0899","BSTAR":"0.00005050100000","LAUNCH_DATE":"2020-08-07","PERIAPSIS":"546.142","REV_AT_EPOCH":"11474","OBJECT_ID":"2020-055BE","RCS_SIZE":"LARGE"}];
